{"type": "FeatureCollection", "features": [ {"type": "Feature", "properties": {"norad_id": 40664, "name": "SKY MEXICO-1", "group": "intelsat", "lat": -0.00943740014724718, "lon": -59.46523366742549, "alt_km": 35776.53689196655, "timestamp": "2025-12-16T19:34:23.933107+00:00", "meta": {"OBJECT_NAME": "SKY MEXICO-1", "OBJECT_ID": "2015-026B", "EPOCH": "2025-12-15T21:34:26.685408", "MEAN_MOTION": 1.00271624, "ECCENTRICITY": 0.00024269, "INCLINATION": 0.0207, "RA_OF_ASC_NODE": 299.3267, "ARG_OF_PERICENTER": 341.7536, "MEAN_ANOMALY": 48.5659, "EPHEMERIS_TYPE": 0, "CLASSIFICATION_TYPE": "U", "NORAD_CAT_ID": 40664, "ELEMENT_SET_NO": 999, "REV_AT_EPOCH": 3861, "BSTAR": 0, "MEAN_MOTION_DOT": -2.12e-06, "MEAN_MOTION_DDOT": 0}, "tle": {"line1": "1 40664U 15026B   25349.89891997 -.00000212  00000+0  00000+0 0  9991", "line2": "2 40664   0.0207 299.3267 0002426 341.7536  48.5659  1.00271624 38610"}}, "geometry": {"type": "Point", "coordinates": [-59.46523366742549, -0.00943740014724718]}}, {"type": "Feature", "properties": {"norad_id": 40874, "name": "INTELSAT 34 (IS-34)", "group": "intelsat", "lat": 7.274823338529196e-05, "lon": -36.211164053772805, "alt_km": 35789.063172154405, "timestamp": "2025-12-16T19:34:23.933119+00:00", "meta": {"OBJECT_NAME": "INTELSAT 34 (IS-34)", "OBJECT_ID": "2015-039A", "EPOCH": "2025-12-15T04:46:38.428896", "MEAN_MOTION": 1.00271545, "ECCENTRICITY": 6.597e-05, "INCLINATION": 0.0124, "RA_OF_ASC_NODE": 311.7695, "ARG_OF_PERICENTER": 201.039, "MEAN_ANOMALY": 307.4611, "EPHEMERIS_TYPE": 0, "CLASSIFICATION_TYPE": "U", "NORAD_CAT_ID": 40874, "ELEMENT_SET_NO": 999, "REV_AT_EPOCH": 3778, "BSTAR": 0, "MEAN_MOTION_DOT": -2.65e-06, "MEAN_MOTION_DDOT": 0}, "tle": {"line1": "1 40874U 15039A   25349.19905589 -.00000265  00000+0  00000+0 0  9992", "line2": "2 40874   0.0124 311.7695 0000659 201.0390 307.4611  1.00271545 37781"}}, "geometry": {"type": "Point", "coordinates": [-36.211164053772805, 7.274823338529196e-05]}}, {"type": "Feature", "properties": {"norad_id": 41581, "name": "INTELSAT 31 (IS-31)", "group": "intelsat", "lat": -0.009599214754478823, "lon": -75.74880822711286, "alt_km": 35784.32474719862, "timestamp": "2025-12-16T19:34:23.933131+00:00", "meta": {"OBJECT_NAME": "INTELSAT 31 (IS-31)", "OBJECT_ID": "2016-035A", "EPOCH": "2025-12-15T21:29:49.627392", "MEAN_MOTION": 1.00270633, "ECCENTRICITY": 0.00018444, "INCLINATION": 0.0188, "RA_OF_ASC_NODE": 273.8522, "ARG_OF_PERICENTER": 295.8843, "MEAN_ANOMALY": 102.4606, "EPHEMERIS_TYPE": 0, "CLASSIFICATION_TYPE": "U", "NORAD_CAT_ID": 41581, "ELEMENT_SET_NO": 999, "REV_AT_EPOCH": 3484, "BSTAR": 0, "MEAN_MOTION_DOT": -1.28e-06, "MEAN_MOTION_DDOT": 0}, "tle": {"line1": "1 41581U 16035A   25349.89571328 -.00000128  00000+0  00000+0 0  9990", "line2": "2 41581   0.0188 273.8522 0001844 295.8843 102.4606  1.00270633 34843"}}, "geometry": {"type": "Point", "coordinates": [-75.74880822711286, -0.009599214754478823]}}, {"type": "Feature", "properties": {"norad_id": 41747, "name": "INTELSAT 36 (IS-36)", "group": "intelsat", "lat": 0.034621519627197006, "lon": 87.7852592029423, "alt_km": 35788.6699188656, "timestamp": "2025-12-16T19:34:23.933143+00:00", "meta": {"OBJECT_NAME": "INTELSAT 36 (IS-36)", "OBJECT_ID": "2016-053A", "EPOCH": "2025-12-15T22:16:22.668960", "MEAN_MOTION": 1.00271054, "ECCENTRICITY": 0.00011381, "INCLINATION": 0.011, "RA_OF_ASC_NODE": 353.2543, "ARG_OF_PERICENTER": 334.3264, "MEAN_ANOMALY": 159.8273, "EPHEMERIS_TYPE": 0, "CLASSIFICATION_TYPE": "U", "NORAD_CAT_ID": 41747, "ELEMENT_SET_NO": 999, "REV_AT_EPOCH": 3411, "BSTAR": 0, "MEAN_MOTION_DOT": -2e-08, "MEAN_MOTION_DDOT": 0}, "tle": {"line1": "1 41747U 16053A   25349.92804015 -.00000002  00000+0  00000+0 0  9991", "line2": "2 41747   0.0110 353.2543 0001138 334.3264 159.8273  1.00271054 34114"}}, "geometry": {"type": "Point", "coordinates": [87.7852592029423, 0.034621519627197006]}}, {"type": "Feature", "properties": {"norad_id": 41945, "name": "INTELSAT 32E (IS-32E)", "group": "intelsat", "lat": -0.025699572357610913, "lon": -23.893376311060567, "alt_km": 35786.050643424576, "timestamp": "2025-12-16T19:34:23.933155+00:00", "meta": {"OBJECT_NAME": "INTELSAT 32E (IS-32E)", "OBJECT_ID": "2017-007B", "EPOCH": "2025-12-15T18:19:03.311328", "MEAN_MOTION": 1.00271256, "ECCENTRICITY": 2.918e-05, "INCLINATION": 0.0313, "RA_OF_ASC_NODE": 77.2061, "ARG_OF_PERICENTER": 334.9204, "MEAN_ANOMALY": 264.1246, "EPHEMERIS_TYPE": 0, "CLASSIFICATION_TYPE": "U", "NORAD_CAT_ID": 41945, "ELEMENT_SET_NO": 999, "REV_AT_EPOCH": 3238, "BSTAR": 0, "MEAN_MOTION_DOT": -2.47e-06, "MEAN_MOTION_DDOT": 0}, "tle": {"line1": "1 41945U 17007B   25349.76323277 -.00000247  00000+0  00000+0 0  9990", "line2": "2 41945   0.0313  77.2061 0000291 334.9204 264.1246  1.00271256 32387"}}, "geometry": {"type": "Point", "coordinates": [-23.893376311060567, -0.025699572357610913]}}, {"type": "Feature", "properties": {"norad_id": 42818, "name": "INTELSAT 35E (IS-35E)", "group": "intelsat", "lat": -0.002710075016978636, "lon": -15.194712352066773, "alt_km": 35784.793689227656, "timestamp": "2025-12-16T19:34:23.933167+00:00", "meta": {"OBJECT_NAME": "INTELSAT 35E (IS-35E)", "OBJECT_ID": "2017-041A", "EPOCH": "2025-12-15T23:05:39.563808", "MEAN_MOTION": 1.00270451, "ECCENTRICITY": 0.00018416, "INCLINATION": 0.0241, "RA_OF_ASC_NODE": 352.7937, "ARG_OF_PERICENTER": 274.9317, "MEAN_ANOMALY": 129.0497, "EPHEMERIS_TYPE": 0, "CLASSIFICATION_TYPE": "U", "NORAD_CAT_ID": 42818, "ELEMENT_SET_NO": 999, "REV_AT_EPOCH": 3097, "BSTAR": 0, "MEAN_MOTION_DOT": 0, "MEAN_MOTION_DDOT": 0}, "tle": {"line1": "1 42818U 17041A   25349.96226347  .00000000  00000+0  00000+0 0  9996", "line2": "2 42818   0.0241 352.7937 0001841 274.9317 129.0497  1.00270451 30976"}}, "geometry": {"type": "Point", "coordinates": [-15.194712352066773, -0.002710075016978636]}}, {"type": "Feature", "properties": {"norad_id": 42950, "name": "INTELSAT 37E (IS-37E)", "group": "intelsat", "lat": 0.019632207571937305, "lon": 1.3240556027709005, "alt_km": 35789.60934869137, "timestamp": "2025-12-16T19:34:23.933178+00:00", "meta": {"OBJECT_NAME": "INTELSAT 37E (IS-37E)", "OBJECT_ID": "2017-059A", "EPOCH": "2025-12-15T21:51:47.522880", "MEAN_MOTION": 1.00271328, "ECCENTRICITY": 0.00030555, "INCLINATION": 0.0195, "RA_OF_ASC_NODE": 332.0029, "ARG_OF_PERICENTER": 284.1512, "MEAN_ANOMALY": 138.6062, "EPHEMERIS_TYPE": 0, "CLASSIFICATION_TYPE": "U", "NORAD_CAT_ID": 42950, "ELEMENT_SET_NO": 999, "REV_AT_EPOCH": 3022, "BSTAR": 0, "MEAN_MOTION_DOT": -1.18e-06, "MEAN_MOTION_DDOT": 0}, "tle": {"line1": "1 42950U 17059A   25349.91096670 -.00000118  00000+0  00000+0 0  9992", "line2": "2 42950   0.0195 332.0029 0003055 284.1512 138.6062  1.00271328 30229"}}, "geometry": {"type": "Point", "coordinates": [1.3240556027709005, 0.019632207571937305]}}, {"type": "Feature", "properties": {"norad_id": 43632, "name": "AZERSPACE 2 (IS-38)", "group": "intelsat", "lat": 0.03843628616452524, "lon": 64.40735153708471, "alt_km": 35790.54793520834, "timestamp": "2025-12-16T19:34:23.933190+00:00", "meta": {"OBJECT_NAME": "AZERSPACE 2 (IS-38)", "OBJECT_ID": "2018-074A", "EPOCH": "2025-12-15T22:09:45.801792", "MEAN_MOTION": 1.00271417, "ECCENTRICITY": 0.00011857, "INCLINATION": 0.0164, "RA_OF_ASC_NODE": 358.7051, "ARG_OF_PERICENTER": 272.6561, "MEAN_ANOMALY": 191.0142, "EPHEMERIS_TYPE": 0, "CLASSIFICATION_TYPE": "U", "NORAD_CAT_ID": 43632, "ELEMENT_SET_NO": 999, "REV_AT_EPOCH": 2661, "BSTAR": 0, "MEAN_MOTION_DOT": 1.59e-06, "MEAN_MOTION_DDOT": 0}, "tle": {"line1": "1 43632U 18074A   25349.92344678  .00000159  00000+0  00000+0 0  9997", "line2": "2 43632   0.0164 358.7051 0001185 272.6561 191.0142  1.00271417 26610"}}, "geometry": {"type": "Point", "coordinates": [64.40735153708471, 0.03843628616452524]}}, {"type": "Feature", "properties": {"norad_id": 43633, "name": "HORIZONS-3E", "group": "intelsat", "lat": -0.023409635882062355, "lon": -171.74630929242812, "alt_km": 35786.99707451371, "timestamp": "2025-12-16T19:34:23.933202+00:00", "meta": {"OBJECT_NAME": "HORIZONS-3E", "OBJECT_ID": "2018-074B", "EPOCH": "2025-12-15T05:37:52.787136", "MEAN_MOTION": 1.00269929, "ECCENTRICITY": 9.177e-05, "INCLINATION": 0.0461, "RA_OF_ASC_NODE": 189.5477, "ARG_OF_PERICENTER": 95.4301, "MEAN_ANOMALY": 52.6199, "EPHEMERIS_TYPE": 0, "CLASSIFICATION_TYPE": "U", "NORAD_CAT_ID": 43633, "ELEMENT_SET_NO": 999, "REV_AT_EPOCH": 2649, "BSTAR": 0, "MEAN_MOTION_DOT": -1e-07, "MEAN_MOTION_DDOT": 0}, "tle": {"line1": "1 43633U 18074B   25349.23463874 -.00000010  00000+0  00000+0 0  9999", "line2": "2 43633   0.0461 189.5477 0000917  95.4301  52.6199  1.00269929 26493"}}, "geometry": {"type": "Point", "coordinates": [-171.74630929242812, -0.023409635882062355]}}, {"type": "Feature", "properties": {"norad_id": 44333, "name": "AT&T T-16", "group": "intelsat", "lat": -0.026858175273508325, "lon": -81.5459142400255, "alt_km": 35787.597246998244, "timestamp": "2025-12-16T19:34:23.933214+00:00", "meta": {"OBJECT_NAME": "AT&T T-16", "OBJECT_ID": "2019-034A", "EPOCH": "2025-12-15T09:29:00.650688", "MEAN_MOTION": 1.00274124, "ECCENTRICITY": 8.334e-05, "INCLINATION": 0.024, "RA_OF_ASC_NODE": 67.0512, "ARG_OF_PERICENTER": 83.7353, "MEAN_ANOMALY": 334.9128, "EPHEMERIS_TYPE": 0, "CLASSIFICATION_TYPE": "U", "NORAD_CAT_ID": 44333, "ELEMENT_SET_NO": 999, "REV_AT_EPOCH": 2379, "BSTAR": 0, "MEAN_MOTION_DOT": -9.4e-07, "MEAN_MOTION_DDOT": 0}, "tle": {"line1": "1 44333U 19034A   25349.39514642 -.00000094  00000+0  00000+0 0  9993", "line2": "2 44333   0.0240  67.0512 0000833  83.7353 334.9128  1.00274124 23791"}}, "geometry": {"type": "Point", "coordinates": [-81.5459142400255, -0.026858175273508325]}}]}